start=new Date('2022-08-12T00:00:00.000Z').valueOf();
sats=[{"OBJECT_NAME":"STARLINK-1245","ELEMENT_SET_NO":"999","DECAY_DATE":null,"PERIOD":"95.593","COUNTRY_CODE":"US","APOAPSIS":"548.246","SEMIMAJOR_AXIS":"6925.368","ECCENTRICITY":"0.00014620","TLE_LINE2":"2 45215  53.0554 129.4090 0001462  65.6184 294.4958 15.06393523137334","MEAN_MOTION_DDOT":"0.0000000000000","REF_FRAME":"TEME","OBJECT_ID":"2020-012AP","CENTER_NAME":"EARTH","OBJECT_TYPE":"PAYLOAD","MEAN_MOTION_DOT":"0.00001765","MEAN_MOTION":"15.06393523","ARG_OF_PERICENTER":"65.6184","SITE":"AFETR","EPHEMERIS_TYPE":"0","GP_ID":"210037335","EPOCH":"2022-08-11T16:57:31.548096","TLE_LINE1":"1 45215U 20012AP  22223.70661514  .00001765  00000-0  13738-3 0  9997","RA_OF_ASC_NODE":"129.4090","CLASSIFICATION_TYPE":"U","RCS_SIZE":"LARGE","FILE":"3534576","BSTAR":"0.00013738000000","TIME_SYSTEM":"UTC","MEAN_ELEMENT_THEORY":"SGP4","INCLINATION":"53.0554","NORAD_CAT_ID":"45215","MEAN_ANOMALY":"294.4958","PERIAPSIS":"546.221","LAUNCH_DATE":"2020-02-17","REV_AT_EPOCH":"13733"},{"TLE_LINE1":"1 45217U 20012AR  22223.15004327 -.00005916  00000-0 -37859-3 0  9995","GP_ID":"210025231","EPOCH":"2022-08-11T03:36:03.738528","ARG_OF_PERICENTER":"72.1773","EPHEMERIS_TYPE":"0","SITE":"AFETR","OBJECT_TYPE":"PAYLOAD","CENTER_NAME":"EARTH","MEAN_MOTION_DOT":"-0.00005916","MEAN_MOTION":"15.06396583","PERIAPSIS":"546.063","REV_AT_EPOCH":"13819","LAUNCH_DATE":"2020-02-17","TIME_SYSTEM":"UTC","MEAN_ELEMENT_THEORY":"SGP4","MEAN_ANOMALY":"287.9399","INCLINATION":"53.0550","NORAD_CAT_ID":"45217","CLASSIFICATION_TYPE":"U","RA_OF_ASC_NODE":"131.9161","RCS_SIZE":"LARGE","FILE":"3534319","BSTAR":"-0.00037859000000","COUNTRY_CODE":"US","APOAPSIS":"548.385","PERIOD":"95.592","DECAY_DATE":null,"ELEMENT_SET_NO":"999","OBJECT_NAME":"STARLINK-1271","OBJECT_ID":"2020-012AR","TLE_LINE2":"2 45217  53.0550 131.9161 0001677  72.1773 287.9399 15.06396583138194","REF_FRAME":"TEME","MEAN_MOTION_DDOT":"0.0000000000000","ECCENTRICITY":"0.00016770","SEMIMAJOR_AXIS":"6925.359"},{"TLE_LINE2":"2 45219  53.0556 112.2185 0001616  82.1395 277.9777 15.06416139138474","REF_FRAME":"TEME","MEAN_MOTION_DDOT":"0.0000000000000","OBJECT_ID":"2020-012AT","SEMIMAJOR_AXIS":"6925.299","ECCENTRICITY":"0.00016160","DECAY_DATE":null,"PERIOD":"95.591","COUNTRY_CODE":"US","APOAPSIS":"548.283","OBJECT_NAME":"STARLINK-1187","ELEMENT_SET_NO":"999","PERIAPSIS":"546.045","REV_AT_EPOCH":"13847","LAUNCH_DATE":"2020-02-17","CLASSIFICATION_TYPE":"U","RA_OF_ASC_NODE":"112.2185","BSTAR":"-0.00029611000000","FILE":"3534319","RCS_SIZE":"LARGE","TIME_SYSTEM":"UTC","MEAN_ELEMENT_THEORY":"SGP4","MEAN_ANOMALY":"277.9777","INCLINATION":"53.0556","NORAD_CAT_ID":"45219","GP_ID":"210025479","EPOCH":"2022-08-11T01:57:51.143616","TLE_LINE1":"1 45219U 20012AT  22223.08184194 -.00004691  00000-0 -29611-3 0  9996","OBJECT_TYPE":"PAYLOAD","CENTER_NAME":"EARTH","MEAN_MOTION_DOT":"-0.00004691","MEAN_MOTION":"15.06416139","ARG_OF_PERICENTER":"82.1395","EPHEMERIS_TYPE":"0","SITE":"AFETR"},{"SEMIMAJOR_AXIS":"6925.410","ECCENTRICITY":"0.00015610","TLE_LINE2":"2 45221  53.0541 112.7961 0001561  79.0475 281.0690 15.06379908138440","MEAN_MOTION_DDOT":"0.0000000000000","REF_FRAME":"TEME","OBJECT_ID":"2020-012AV","OBJECT_NAME":"STARLINK-1189","ELEMENT_SET_NO":"999","PERIOD":"95.593","DECAY_DATE":null,"COUNTRY_CODE":"US","APOAPSIS":"548.356","RA_OF_ASC_NODE":"112.7961","CLASSIFICATION_TYPE":"U","FILE":"3534319","BSTAR":"-0.00006702700000","RCS_SIZE":"LARGE","TIME_SYSTEM":"UTC","MEAN_ELEMENT_THEORY":"SGP4","INCLINATION":"53.0541","NORAD_CAT_ID":"45221","MEAN_ANOMALY":"281.0690","PERIAPSIS":"546.194","LAUNCH_DATE":"2020-02-17","REV_AT_EPOCH":"13844","CENTER_NAME":"EARTH","OBJECT_TYPE":"PAYLOAD","MEAN_MOTION_DOT":"-0.00001279","MEAN_MOTION":"15.06379908","ARG_OF_PERICENTER":"79.0475","SITE":"AFETR","EPHEMERIS_TYPE":"0","GP_ID":"210026215","EPOCH":"2022-08-10T22:52:06.532032","TLE_LINE1":"1 45221U 20012AV  22222.95285338 -.00001279  00000-0 -67027-4 0  9999"},{"RA_OF_ASC_NODE":"111.8526","CLASSIFICATION_TYPE":"U","FILE":"3534319","RCS_SIZE":"LARGE","BSTAR":"-0.00002381700000","MEAN_ELEMENT_THEORY":"SGP4","TIME_SYSTEM":"UTC","INCLINATION":"53.0553","NORAD_CAT_ID":"45222","MEAN_ANOMALY":"282.2761","PERIAPSIS":"546.152","REV_AT_EPOCH":"13847","LAUNCH_DATE":"2020-02-17","OBJECT_TYPE":"PAYLOAD","CENTER_NAME":"EARTH","MEAN_MOTION_DOT":"-0.00000636","MEAN_MOTION":"15.06392353","ARG_OF_PERICENTER":"77.8403","SITE":"AFETR","EPHEMERIS_TYPE":"0","GP_ID":"210024481","EPOCH":"2022-08-11T03:49:20.176320","TLE_LINE1":"1 45222U 20012AW  22223.15926130 -.00000636  00000-0 -23817-4 0  9990","SEMIMAJOR_AXIS":"6925.372","ECCENTRICITY":"0.00015660","TLE_LINE2":"2 45222  53.0553 111.8526 0001566  77.8403 282.2761 15.06392353138477","MEAN_MOTION_DDOT":"0.0000000000000","REF_FRAME":"TEME","OBJECT_ID":"2020-012AW","OBJECT_NAME":"STARLINK-1191","ELEMENT_SET_NO":"999","PERIOD":"95.593","DECAY_DATE":null,"COUNTRY_CODE":"US","APOAPSIS":"548.322"},{"SITE":"AFETR","EPHEMERIS_TYPE":"0","ARG_OF_PERICENTER":"78.4501","MEAN_MOTION":"15.06396191","OBJECT_TYPE":"PAYLOAD","CENTER_NAME":"EARTH","MEAN_MOTION_DOT":"0.00004782","TLE_LINE1":"1 45223U 20012AX  22223.71120117  .00004782  00000-0  33977-3 0  9995","GP_ID":"210037248","EPOCH":"2022-08-11T17:04:07.781088","NORAD_CAT_ID":"45223","INCLINATION":"53.0527","MEAN_ANOMALY":"281.6686","TIME_SYSTEM":"UTC","MEAN_ELEMENT_THEORY":"SGP4","FILE":"3534571","BSTAR":"0.00033977000000","RCS_SIZE":"LARGE","RA_OF_ASC_NODE":"109.3718","CLASSIFICATION_TYPE":"U","REV_AT_EPOCH":"13762","LAUNCH_DATE":"2020-02-17","PERIAPSIS":"546.004","ELEMENT_SET_NO":"999","OBJECT_NAME":"STARLINK-1212","APOAPSIS":"548.447","COUNTRY_CODE":"US","PERIOD":"95.592","DECAY_DATE":null,"ECCENTRICITY":"0.00017640","SEMIMAJOR_AXIS":"6925.360","OBJECT_ID":"2020-012AX","MEAN_MOTION_DDOT":"0.0000000000000","REF_FRAME":"TEME","TLE_LINE2":"2 45223  53.0527 109.3718 0001764  78.4501 281.6686 15.06396191137629"},{"ELEMENT_SET_NO":"999","OBJECT_NAME":"STARLINK-1215","APOAPSIS":"548.437","COUNTRY_CODE":"US","PERIOD":"95.593","DECAY_DATE":null,"ECCENTRICITY":"0.00016860","SEMIMAJOR_AXIS":"6925.404","OBJECT_ID":"2020-012AZ","REF_FRAME":"TEME","MEAN_MOTION_DDOT":"0.0000000000000","TLE_LINE2":"2 45225  53.0543 113.7582 0001686  64.7670 295.3494 15.06381912137472","EPHEMERIS_TYPE":"0","SITE":"AFETR","ARG_OF_PERICENTER":"64.7670","MEAN_MOTION":"15.06381912","OBJECT_TYPE":"PAYLOAD","MEAN_MOTION_DOT":"-0.00003402","CENTER_NAME":"EARTH","TLE_LINE1":"1 45225U 20012AZ  22222.73538881 -.00003402  00000-0 -20971-3 0  9999","EPOCH":"2022-08-10T17:38:57.593184","GP_ID":"210002936","MEAN_ANOMALY":"295.3494","NORAD_CAT_ID":"45225","INCLINATION":"53.0543","MEAN_ELEMENT_THEORY":"SGP4","TIME_SYSTEM":"UTC","FILE":"3534154","RCS_SIZE":"LARGE","BSTAR":"-0.00020971000000","CLASSIFICATION_TYPE":"U","RA_OF_ASC_NODE":"113.7582","REV_AT_EPOCH":"13747","LAUNCH_DATE":"2020-02-17","PERIAPSIS":"546.101"},{"LAUNCH_DATE":"2020-02-17","REV_AT_EPOCH":"13823","PERIAPSIS":"546.225","INCLINATION":"53.0560","NORAD_CAT_ID":"45226","MEAN_ANOMALY":"277.8700","TIME_SYSTEM":"UTC","MEAN_ELEMENT_THEORY":"SGP4","FILE":"3533800","RCS_SIZE":"LARGE","BSTAR":"-0.00007033800000","RA_OF_ASC_NODE":"116.4166","CLASSIFICATION_TYPE":"U","TLE_LINE1":"1 45226U 20012BA  22222.14562508 -.00001329  00000-0 -70338-4 0  9997","GP_ID":"209965492","EPOCH":"2022-08-10T03:29:42.006912","SITE":"AFETR","EPHEMERIS_TYPE":"0","ARG_OF_PERICENTER":"82.2458","MEAN_MOTION":"15.06386695","MEAN_MOTION_DOT":"-0.00001329","OBJECT_TYPE":"PAYLOAD","CENTER_NAME":"EARTH","OBJECT_ID":"2020-012BA","MEAN_MOTION_DDOT":"0.0000000000000","REF_FRAME":"TEME","TLE_LINE2":"2 45226  53.0560 116.4166 0001487  82.2458 277.8700 15.06386695138231","ECCENTRICITY":"0.00014870","SEMIMAJOR_AXIS":"6925.389","APOAPSIS":"548.284","COUNTRY_CODE":"US","PERIOD":"95.593","DECAY_DATE":null,"ELEMENT_SET_NO":"999","OBJECT_NAME":"STARLINK-1217"},{"PERIOD":"95.593","DECAY_DATE":null,"COUNTRY_CODE":"US","APOAPSIS":"548.182","OBJECT_NAME":"STARLINK-1221","ELEMENT_SET_NO":"999","TLE_LINE2":"2 45227  53.0566 108.8674 0001314  84.8734 275.2405 15.06380792137607","REF_FRAME":"TEME","MEAN_MOTION_DDOT":"0.0000000000000","OBJECT_ID":"2020-012BB","SEMIMAJOR_AXIS":"6925.407","ECCENTRICITY":"0.00013140","GP_ID":"210036906","EPOCH":"2022-08-11T19:50:02.771808","TLE_LINE1":"1 45227U 20012BB  22223.82642097 -.00000151  00000-0  87773-5 0  9999","OBJECT_TYPE":"PAYLOAD","CENTER_NAME":"EARTH","MEAN_MOTION_DOT":"-0.00000151","MEAN_MOTION":"15.06380792","ARG_OF_PERICENTER":"84.8734","EPHEMERIS_TYPE":"0","SITE":"AFETR","PERIAPSIS":"546.362","LAUNCH_DATE":"2020-02-17","REV_AT_EPOCH":"13760","CLASSIFICATION_TYPE":"U","RA_OF_ASC_NODE":"108.8674","BSTAR":"0.00000877730000","FILE":"3534573","RCS_SIZE":"LARGE","MEAN_ELEMENT_THEORY":"SGP4","TIME_SYSTEM":"UTC","MEAN_ANOMALY":"275.2405","INCLINATION":"53.0566","NORAD_CAT_ID":"45227"},{"RCS_SIZE":"LARGE","FILE":"3534573","BSTAR":"0.00009254900000","RA_OF_ASC_NODE":"109.4453","CLASSIFICATION_TYPE":"U","INCLINATION":"53.0563","NORAD_CAT_ID":"45228","MEAN_ANOMALY":"284.6794","TIME_SYSTEM":"UTC","MEAN_ELEMENT_THEORY":"SGP4","REV_AT_EPOCH":"13761","LAUNCH_DATE":"2020-02-17","PERIAPSIS":"546.203","MEAN_MOTION":"15.06391723","CENTER_NAME":"EARTH","OBJECT_TYPE":"PAYLOAD","MEAN_MOTION_DOT":"0.00001097","SITE":"AFETR","EPHEMERIS_TYPE":"0","ARG_OF_PERICENTER":"75.4361","GP_ID":"210036909","EPOCH":"2022-08-11T16:44:15.499968","TLE_LINE1":"1 45228U 20012BC  22223.69740162  .00001097  00000-0  92549-4 0  9992","SEMIMAJOR_AXIS":"6925.374","ECCENTRICITY":"0.00014960","MEAN_MOTION_DDOT":"0.0000000000000","REF_FRAME":"TEME","TLE_LINE2":"2 45228  53.0563 109.4453 0001496  75.4361 284.6794 15.06391723137612","OBJECT_ID":"2020-012BC","OBJECT_NAME":"STARLINK-1222","ELEMENT_SET_NO":"999","PERIOD":"95.593","DECAY_DATE":null,"APOAPSIS":"548.275","COUNTRY_CODE":"US"}];
